{
  "type": "FeatureCollection",
  "features": [
    {
      "type": "Feature",
      "properties": {
        "norad_id": 31307,
        "name": "GALAXY 17 (G-17)",
        "group": "intelsat",
        "lat": 2.4808714265742715,
        "lon": 166.88126580119223,
        "alt_km": 35780.02454880097,
        "timestamp": "2025-12-09T11:33:54.468074+00:00",
        "meta_object_name": "GALAXY 17 (G-17)",
        "meta_object_id": "2007-016B",
        "meta_epoch": "2025-12-09T03:56:38.639904",
        "meta_mean_motion": 1.00272588,
        "meta_eccentricity": 0.0006084,
        "meta_inclination": 2.491,
        "meta_ra_of_asc_node": 82.3224,
        "meta_arg_of_pericenter": 162.0531,
        "meta_mean_anomaly": 167.9492,
        "meta_ephemeris_type": 0,
        "meta_classification_type": "U",
        "meta_norad_cat_id": 31307,
        "meta_element_set_no": 999,
        "meta_rev_at_epoch": 6789,
        "meta_bstar": 0,
        "meta_mean_motion_dot": -2.05e-06,
        "meta_mean_motion_ddot": 0,
        "tle_line1": "1 31307U 07016B   25343.16433611 -.00000205  00000+0  00000+0 0  9996",
        "tle_line2": "2 31307   2.4910  82.3224 0006084 162.0531 167.9492  1.00272588 67890"
      },
      "geometry": {
        "type": "Point",
        "coordinates": [
          166.88126580119223,
          2.4808714265742715
        ]
      }
    },
    {
      "type": "Feature",
      "properties": {
        "norad_id": 31862,
        "name": "DIRECTV 10",
        "group": "intelsat",
        "lat": -0.0008889267582486382,
        "lon": 149.16153928839105,
        "alt_km": 35785.456601545135,
        "timestamp": "2025-12-09T11:33:54.468085+00:00",
        "meta_object_name": "DIRECTV 10",
        "meta_object_id": "2007-032A",
        "meta_epoch": "2025-12-08T14:49:37.716960",
        "meta_mean_motion": 1.00272413,
        "meta_eccentricity": 4.123e-05,
        "meta_inclination": 0.0164,
        "meta_ra_of_asc_node": 163.1982,
        "meta_arg_of_pericenter": 60.4028,
        "meta_mean_anomaly": 333.6449,
        "meta_ephemeris_type": 0,
        "meta_classification_type": "U",
        "meta_norad_cat_id": 31862,
        "meta_element_set_no": 999,
        "meta_rev_at_epoch": 4368,
        "meta_bstar": 0,
        "meta_mean_motion_dot": -1.01e-06,
        "meta_mean_motion_ddot": 0,
        "tle_line1": "1 31862U 07032A   25342.61779765 -.00000101  00000+0  00000+0 0  9997",
        "tle_line2": "2 31862   0.0164 163.1982 0000412  60.4028 333.6449  1.00272413 43683"
      },
      "geometry": {
        "type": "Point",
        "coordinates": [
          149.16153928839105,
          -0.0008889267582486382
        ]
      }
    },
    {
      "type": "Feature",
      "properties": {
        "norad_id": 32253,
        "name": "INTELSAT 11 (IS-11)",
        "group": "intelsat",
        "lat": 2.3951755170211517,
        "lon": 131.84065032425997,
        "alt_km": 36148.00926072017,
        "timestamp": "2025-12-09T11:33:54.468097+00:00",
        "meta_object_name": "INTELSAT 11 (IS-11)",
        "meta_object_id": "2007-044B",
        "meta_epoch": "2025-12-09T04:53:21.993792",
        "meta_mean_motion": 0.99047855,
        "meta_eccentricity": 0.0009117,
        "meta_inclination": 3.0711,
        "meta_ra_of_asc_node": 81.0135,
        "meta_arg_of_pericenter": 164.4337,
        "meta_mean_anomaly": 147.3461,
        "meta_ephemeris_type": 0,
        "meta_classification_type": "U",
        "meta_norad_cat_id": 32253,
        "meta_element_set_no": 999,
        "meta_rev_at_epoch": 6656,
        "meta_bstar": 0,
        "meta_mean_motion_dot": 7.2e-07,
        "meta_mean_motion_ddot": 0,
        "tle_line1": "1 32253U 07044B   25343.20372678  .00000072  00000+0  00000+0 0  9999",
        "tle_line2": "2 32253   3.0711  81.0135 0009117 164.4337 147.3461  0.99047855 66569"
      },
      "geometry": {
        "type": "Point",
        "coordinates": [
          131.84065032425997,
          2.3951755170211517
        ]
      }
    },
    {
      "type": "Feature",
      "properties": {
        "norad_id": 32388,
        "name": "HORIZONS-2",
        "group": "intelsat",
        "lat": 2.100534807388386,
        "lon": 178.11176350593828,
        "alt_km": 35786.76756219461,
        "timestamp": "2025-12-09T11:33:54.468109+00:00",
        "meta_object_name": "HORIZONS-2",
        "meta_object_id": "2007-063B",
        "meta_epoch": "2025-12-09T03:56:38.639904",
        "meta_mean_motion": 1.00270568,
        "meta_eccentricity": 0.0005034,
        "meta_inclination": 2.1123,
        "meta_ra_of_asc_node": 82.9961,
        "meta_arg_of_pericenter": 186.7935,
        "meta_mean_anomaly": 153.7493,
        "meta_ephemeris_type": 0,
        "meta_classification_type": "U",
        "meta_norad_cat_id": 32388,
        "meta_element_set_no": 999,
        "meta_rev_at_epoch": 6590,
        "meta_bstar": 0,
        "meta_mean_motion_dot": -2.52e-06,
        "meta_mean_motion_ddot": 0,
        "tle_line1": "1 32388U 07063B   25343.16433611 -.00000252  00000+0  00000+0 0  9990",
        "tle_line2": "2 32388   2.1123  82.9961 0005034 186.7935 153.7493  1.00270568 65902"
      },
      "geometry": {
        "type": "Point",
        "coordinates": [
          178.11176350593828,
          2.100534807388386
        ]
      }
    },
    {
      "type": "Feature",
      "properties": {
        "norad_id": 32729,
        "name": "DIRECTV 11",
        "group": "intelsat",
        "lat": -0.00043873830679826294,
        "lon": 152.75314026943582,
        "alt_km": 35784.434758310075,
        "timestamp": "2025-12-09T11:33:54.468121+00:00",
        "meta_object_name": "DIRECTV 11",
        "meta_object_id": "2008-013A",
        "meta_epoch": "2025-12-08T14:50:30.133248",
        "meta_mean_motion": 1.00272882,
        "meta_eccentricity": 5.266e-05,
        "meta_inclination": 0.0228,
        "meta_ra_of_asc_node": 202.5194,
        "meta_arg_of_pericenter": 2.0786,
        "meta_mean_anomaly": 356.4573,
        "meta_ephemeris_type": 0,
        "meta_classification_type": "U",
        "meta_norad_cat_id": 32729,
        "meta_element_set_no": 999,
        "meta_rev_at_epoch": 4368,
        "meta_bstar": 0,
        "meta_mean_motion_dot": -1.24e-06,
        "meta_mean_motion_ddot": 0,
        "tle_line1": "1 32729U 08013A   25342.61840432 -.00000124  00000+0  00000+0 0  9995",
        "tle_line2": "2 32729   0.0228 202.5194 0000526   2.0786 356.4573  1.00272882 43680"
      },
      "geometry": {
        "type": "Point",
        "coordinates": [
          152.75314026943582,
          -0.00043873830679826294
        ]
      }
    },
    {
      "type": "Feature",
      "properties": {
        "norad_id": 32951,
        "name": "GALAXY 18 (G-18)",
        "group": "intelsat",
        "lat": 0.0026550640141909726,
        "lon": 128.9090442708578,
        "alt_km": 35794.83027718007,
        "timestamp": "2025-12-09T11:33:54.468133+00:00",
        "meta_object_name": "GALAXY 18 (G-18)",
        "meta_object_id": "2008-024A",
        "meta_epoch": "2025-12-09T02:50:38.725728",
        "meta_mean_motion": 1.00272449,
        "meta_eccentricity": 0.0003186,
        "meta_inclination": 0.0132,
        "meta_ra_of_asc_node": 293.3282,
        "meta_arg_of_pericenter": 327.1794,
        "meta_mean_anomaly": 97.2576,
        "meta_ephemeris_type": 0,
        "meta_classification_type": "U",
        "meta_norad_cat_id": 32951,
        "meta_element_set_no": 999,
        "meta_rev_at_epoch": 4394,
        "meta_bstar": 0,
        "meta_mean_motion_dot": 2.7e-07,
        "meta_mean_motion_ddot": 0,
        "tle_line1": "1 32951U 08024A   25343.11850377  .00000027  00000+0  00000+0 0  9990",
        "tle_line2": "2 32951   0.0132 293.3282 0003186 327.1794  97.2576  1.00272449 43943"
      },
      "geometry": {
        "type": "Point",
        "coordinates": [
          128.9090442708578,
          0.0026550640141909726
        ]
      }
    },
    {
      "type": "Feature",
      "properties": {
        "norad_id": 33153,
        "name": "INTELSAT 25 (IS-25)",
        "group": "intelsat",
        "lat": 1.4759624137193292,
        "lon": -139.57255019462346,
        "alt_km": 35770.56822295535,
        "timestamp": "2025-12-09T11:33:54.468145+00:00",
        "meta_object_name": "INTELSAT 25 (IS-25)",
        "meta_object_id": "2008-034A",
        "meta_epoch": "2025-12-09T03:09:01.481760",
        "meta_mean_motion": 1.00270351,
        "meta_eccentricity": 0.0005407,
        "meta_inclination": 2.2185,
        "meta_ra_of_asc_node": 82.6867,
        "meta_arg_of_pericenter": 184.3162,
        "meta_mean_anomaly": 186.8838,
        "meta_ephemeris_type": 0,
        "meta_classification_type": "U",
        "meta_norad_cat_id": 33153,
        "meta_element_set_no": 999,
        "meta_rev_at_epoch": 6379,
        "meta_bstar": 0,
        "meta_mean_motion_dot": -2.22e-06,
        "meta_mean_motion_ddot": 0,
        "tle_line1": "1 33153U 08034A   25343.13126715 -.00000222  00000+0  00000+0 0  9998",
        "tle_line2": "2 33153   2.2185  82.6867 0005407 184.3162 186.8838  1.00270351 63799"
      },
      "geometry": {
        "type": "Point",
        "coordinates": [
          -139.57255019462346,
          1.4759624137193292
        ]
      }
    }
  ]
}